OBJECT_NAME,OBJECT_ID,EPOCH,MEAN_MOTION,ECCENTRICITY,INCLINATION,RA_OF_ASC_NODE,ARG_OF_PERICENTER,MEAN_ANOMALY,EPHEMERIS_TYPE,CLASSIFICATION_TYPE,NORAD_CAT_ID,ELEMENT_SET_NO,REV_AT_EPOCH,BSTAR,MEAN_MOTION_DOT,MEAN_MOTION_DDOT
ONEWEB-0309,2021-075W,2026-07-17T09:18:04.543776,13.17650911,.00023707,87.9148,359.8548,91.9797,268.1606,0,U,49095,999,23755,.59156211E-4,.36E-6,0
ONEWEB-0310,2021-075X,2026-07-17T15:42:05.963616,13.12450315,.00019609,87.8967,344.6211,100.2624,259.8726,0,U,49096,999,23918,-.50920336E-2,-.1819E-4,0
ONEWEB-0311,2021-075Y,2026-07-17T09:27:48.534336,13.17648499,.00016936,87.9148,359.8533,80.2791,279.8532,0,U,49097,999,23760,.35168092E-4,.27E-6,0
ONEWEB-0312,2021-075Z,2026-07-17T09:49:41.182752,13.17648607,.00020179,87.9145,359.8611,83.7603,276.3759,0,U,49098,999,23758,.57811407E-4,.35E-6,0
ONEWEB-0313,2021-075AA,2026-07-17T09:56:45.500064,13.17649889,.00018095,87.9144,359.8649,89.3863,270.7476,0,U,49099,999,23757,.28897649E-4,.24E-6,0
ONEWEB-0314,2021-075AB,2026-07-17T09:08:21.160608,13.17651014,.00020229,87.9158,359.8474,82.2120,277.9242,0,U,49100,999,23754,.19717781E-3,.89E-6,0
ONEWEB-0315,2021-075AC,2026-07-17T09:33:44.506656,13.12442626,.00015767,87.8974,344.6385,87.3268,272.8041,0,U,49101,999,23913,.13078682E-2,.483E-5,0
ONEWEB-0316,2021-075AD,2026-07-17T15:52:16.604256,13.18686371,.00019791,87.9196,329.3961,99.0445,261.0911,0,U,49102,999,24122,-.7167672E-4,-.15E-6,0
ONEWEB-0317,2021-075AE,2026-07-17T09:38:37.280832,13.12442369,.00025039,87.8969,344.6614,107.2309,252.9094,0,U,49103,999,23915,.12418145E-2,.459E-5,0
ONEWEB-0318,2021-075AF,2026-07-17T15:47:13.343712,13.18686679,.0001788,87.9198,329.3990,93.8336,266.3000,0,U,49104,999,24118,-.14795141E-4,.7E-7,0
ONEWEB-0319,2021-075AG,2026-07-17T00:23:29.792256,13.17647669,.00014803,87.9145,359.9338,80.8790,279.2509,0,U,49105,999,23753,-.48552095E-4,-.6E-7,0
ONEWEB-0323,2021-075AH,2026-07-17T09:11:46.997376,13.12443541,.00015915,87.8974,344.6470,79.4920,280.6388,0,U,49106,999,23851,.58315372E-3,.223E-5,0
ONEWEB-0329,2021-075AJ,2026-07-17T09:42:22.381344,13.17648268,.00019105,87.9148,359.8574,88.1544,271.9807,0,U,49107,999,23756,-.35048177E-3,-.123E-5,0
ONEWEB-0330,2021-075AK,2026-07-17T09:47:25.659168,13.17646805,.00019991,87.9149,359.8682,89.2263,270.9098,0,U,49108,999,23760,.25385766E-4,.23E-6,0
ONEWEB-0292,2021-083A,2026-07-17T13:26:59.864640,13.13469775,.00018102,87.8980,314.1936,97.8322,262.3013,0,U,49186,999,23491,.14217916E-3,.65E-6,0
ONEWEB-0303,2021-083B,2026-07-17T15:42:21.475872,13.18683858,.00018061,87.9197,329.3980,94.3591,265.7747,0,U,49187,999,23399,-.23541531E-4,.4E-7,0
ONEWEB-0306,2021-083C,2026-07-17T15:27:48.209472,13.18684681,.00021098,87.9199,329.3891,100.9318,259.2052,0,U,49188,999,23403,-.43977918E-4,-.4E-7,0
ONEWEB-0307,2021-083D,2026-07-17T07:49:22.406592,13.13468114,.00018957,87.8981,314.2378,96.6281,263.5064,0,U,49189,999,23488,.45703881E-3,.18E-5,0
ONEWEB-0320,2021-083E,2026-07-16T21:44:17.558592,13.18687461,.00019393,87.9190,329.5505,99.3056,260.8295,0,U,49190,999,23389,-.64251365E-4,-.12E-6,0
ONEWEB-0321,2021-083F,2026-07-17T10:16:19.092000,13.20772875,.00021585,87.9182,268.4086,104.8373,255.3000,0,U,49191,999,24082,-.5322708E-5,.11E-6,0
ONEWEB-0322,2021-083G,2026-07-17T07:43:17.772672,13.13470291,.00020757,87.8979,314.2384,111.5594,248.5757,0,U,49192,999,23487,.79055278E-3,.301E-5,0
ONEWEB-0324,2021-083H,2026-07-16T21:05:28.205088,13.18686453,.00020717,87.9200,329.5467,95.1805,264.9563,0,U,49193,999,23391,-.10761344E-4,.9E-7,0
ONEWEB-0325,2021-083J,2026-07-17T08:05:53.037888,13.18687192,.00018374,87.9190,329.4612,99.6365,260.4975,0,U,49194,999,23398,-.28812307E-4,.2E-7,0
ONEWEB-0326,2021-083K,2026-07-17T08:27:57.809088,13.18686440,.00016601,87.9199,329.4583,93.9502,266.1820,0,U,49195,999,23397,.15147652E-4,.19E-6,0
ONEWEB-0327,2021-083L,2026-07-17T08:27:33.613632,13.18686454,.00014967,87.9190,329.4602,96.4607,263.6695,0,U,49196,999,23399,.53836602E-4,.34E-6,0
ONEWEB-0328,2021-083M,2026-07-17T14:47:27.227040,13.13470294,.00020602,87.8989,314.1559,96.7039,263.4324,0,U,49197,999,23489,.97350822E-3,.368E-5,0
ONEWEB-0331,2021-083N,2026-07-17T15:35:05.144640,13.18684655,.00016909,87.9202,329.3933,89.6096,270.5230,0,U,49198,999,23402,-.80782936E-4,-.19E-6,0
ONEWEB-0333,2021-083P,2026-07-17T07:21:21.390912,13.13470210,.00018737,87.8984,314.2406,100.1459,259.9881,0,U,49199,999,23486,.92288189E-3,.35E-5,0
ONEWEB-0334,2021-083Q,2026-07-17T03:20:33.390240,13.20769995,.00025344,87.9185,268.4765,115.0899,245.0497,0,U,49200,999,24074,.25482556E-3,.117E-5,0
ONEWEB-0335,2021-083R,2026-07-17T07:14:02.458176,13.13469309,.00018206,87.8979,314.2393,95.7052,264.4285,0,U,49201,999,23487,.70635942E-3,.271E-5,0
